{"type": "FeatureCollection", "features": [{"type": "Feature", "properties": {"norad_id": 25590, "name": "COSMOS 2361", "group": "musson", "lat": -23.271852199496028, "lon": -25.43632451380245, "alt_km": 995.813223820971, "timestamp": "2025-12-21T11:31:43.125576+00:00", "meta": {"OBJECT_NAME": "COSMOS 2361", "OBJECT_ID": "1998-076A", "EPOCH": "2025-12-21T01:28:32.841408", "MEAN_MOTION": 13.73218455, "ECCENTRICITY": 0.0030182, "INCLINATION": 82.9341, "RA_OF_ASC_NODE": 337.9311, "ARG_OF_PERICENTER": 241.479, "MEAN_ANOMALY": 185.2761, "EPHEMERIS_TYPE": 0, "CLASSIFICATION_TYPE": "U", "NORAD_CAT_ID": 25590, "ELEMENT_SET_NO": 999, "REV_AT_EPOCH": 35225, "BSTAR": 3.7398e-05, "MEAN_MOTION_DOT": 5e-07, "MEAN_MOTION_DDOT": 0}, "tle": {"line1": "1 25590U 98076A   25355.06149122  .00000050  00000+0  37398-4 0  9994", "line2": "2 25590  82.9341 337.9311 0030182 241.4790 185.2761 13.73218455352254"}}, "geometry": {"type": "Point", "coordinates": [-25.43632451380245, -23.271852199496028]}}, {"type": "Feature", "properties": {"norad_id": 26818, "name": "COSMOS 2378", "group": "musson", "lat": 75.74529358570636, "lon": 22.498274412501956, "alt_km": 982.8357695629811, "timestamp": "2025-12-21T11:31:43.125598+00:00", "meta": {"OBJECT_NAME": "COSMOS 2378", "OBJECT_ID": "2001-023A", "EPOCH": "2025-12-21T02:44:41.103168", "MEAN_MOTION": 13.74142635, "ECCENTRICITY": 0.0032917, "INCLINATION": 82.9269, "RA_OF_ASC_NODE": 353.5147, "ARG_OF_PERICENTER": 181.3472, "MEAN_ANOMALY": 247.1085, "EPHEMERIS_TYPE": 0, "CLASSIFICATION_TYPE": "U", "NORAD_CAT_ID": 26818, "ELEMENT_SET_NO": 999, "REV_AT_EPOCH": 23038, "BSTAR": 2.2571e-05, "MEAN_MOTION_DOT": 3.7e-07, "MEAN_MOTION_DDOT": 0}, "tle": {"line1": "1 26818U 01023A   25355.11436462  .00000037  00000+0  22571-4 0  9998", "line2": "2 26818  82.9269 353.5147 0032917 181.3472 247.1085 13.74142635230388"}}, "geometry": {"type": "Point", "coordinates": [22.498274412501956, 75.74529358570636]}}, {"type": "Feature", "properties": {"norad_id": 27436, "name": "COSMOS 2389", "group": "musson", "lat": -43.4911484408497, "lon": -66.22659109420303, "alt_km": 981.9842932485881, "timestamp": "2025-12-21T11:31:43.125612+00:00", "meta": {"OBJECT_NAME": "COSMOS 2389", "OBJECT_ID": "2002-026A", "EPOCH": "2025-12-21T03:03:46.399968", "MEAN_MOTION": 13.75155441, "ECCENTRICITY": 0.0047298, "INCLINATION": 82.9509, "RA_OF_ASC_NODE": 300.7753, "ARG_OF_PERICENTER": 37.8913, "MEAN_ANOMALY": 333.5501, "EPHEMERIS_TYPE": 0, "CLASSIFICATION_TYPE": "U", "NORAD_CAT_ID": 27436, "ELEMENT_SET_NO": 999, "REV_AT_EPOCH": 18264, "BSTAR": 3.241e-05, "MEAN_MOTION_DOT": 4.7e-07, "MEAN_MOTION_DDOT": 0}, "tle": {"line1": "1 27436U 02026A   25355.12762037  .00000047  00000+0  32410-4 0  9994", "line2": "2 27436  82.9509 300.7753 0047298  37.8913 333.5501 13.75155441182640"}}, "geometry": {"type": "Point", "coordinates": [-66.22659109420303, -43.4911484408497]}}, {"type": "Feature", "properties": {"norad_id": 27818, "name": "COSMOS 2398", "group": "musson", "lat": -2.8420482833827823, "lon": 86.60955338302836, "alt_km": 995.994008651186, "timestamp": "2025-12-21T11:31:43.125624+00:00", "meta": {"OBJECT_NAME": "COSMOS 2398", "OBJECT_ID": "2003-023A", "EPOCH": "2025-12-21T04:10:11.059104", "MEAN_MOTION": 13.72386519, "ECCENTRICITY": 0.0032717, "INCLINATION": 82.9484, "RA_OF_ASC_NODE": 266.4834, "ARG_OF_PERICENTER": 89.3246, "MEAN_ANOMALY": 19.0113, "EPHEMERIS_TYPE": 0, "CLASSIFICATION_TYPE": "U", "NORAD_CAT_ID": 27818, "ELEMENT_SET_NO": 999, "REV_AT_EPOCH": 12932, "BSTAR": 5.478e-05, "MEAN_MOTION_DOT": 6.6e-07, "MEAN_MOTION_DDOT": 0}, "tle": {"line1": "1 27818U 03023A   25355.17373911  .00000066  00000+0  54780-4 0  9995", "line2": "2 27818  82.9484 266.4834 0032717  89.3246  19.0113 13.72386519129325"}}, "geometry": {"type": "Point", "coordinates": [86.60955338302836, -2.8420482833827823]}}, {"type": "Feature", "properties": {"norad_id": 28380, "name": "COSMOS 2407", "group": "musson", "lat": 37.61682543489096, "lon": 20.957007763227725, "alt_km": 984.6313758623864, "timestamp": "2025-12-21T11:31:43.125636+00:00", "meta": {"OBJECT_NAME": "COSMOS 2407", "OBJECT_ID": "2004-028A", "EPOCH": "2025-12-21T00:54:24.146208", "MEAN_MOTION": 13.76314621, "ECCENTRICITY": 0.0039948, "INCLINATION": 82.9598, "RA_OF_ASC_NODE": 206.7488, "ARG_OF_PERICENTER": 32.2137, "MEAN_ANOMALY": 77.688, "EPHEMERIS_TYPE": 0, "CLASSIFICATION_TYPE": "U", "NORAD_CAT_ID": 28380, "ELEMENT_SET_NO": 999, "REV_AT_EPOCH": 7537, "BSTAR": 5.5827e-05, "MEAN_MOTION_DOT": 7e-07, "MEAN_MOTION_DDOT": 0}, "tle": {"line1": "1 28380U 04028A   25355.03777947  .00000070  00000+0  55827-4 0  9996", "line2": "2 28380  82.9598 206.7488 0039948  32.2137  77.6880 13.76314621 75372"}}, "geometry": {"type": "Point", "coordinates": [20.957007763227725, 37.61682543489096]}}, {"type": "Feature", "properties": {"norad_id": 28521, "name": "COSMOS 2414", "group": "musson", "lat": 48.184576139367714, "lon": -173.9972039129513, "alt_km": 919.567183464238, "timestamp": "2025-12-21T11:31:43.125647+00:00", "meta": {"OBJECT_NAME": "COSMOS 2414", "OBJECT_ID": "2005-002A", "EPOCH": "2025-12-21T00:54:48.930912", "MEAN_MOTION": 13.87904051, "ECCENTRICITY": 0.004129, "INCLINATION": 82.9488, "RA_OF_ASC_NODE": 178.3848, "ARG_OF_PERICENTER": 116.6292, "MEAN_ANOMALY": 243.9111, "EPHEMERIS_TYPE": 0, "CLASSIFICATION_TYPE": "U", "NORAD_CAT_ID": 28521, "ELEMENT_SET_NO": 999, "REV_AT_EPOCH": 5910, "BSTAR": 4.2018e-05, "MEAN_MOTION_DOT": 6.6e-07, "MEAN_MOTION_DDOT": 0}, "tle": {"line1": "1 28521U 05002A   25355.03806633  .00000066  00000+0  42018-4 0  9994", "line2": "2 28521  82.9488 178.3848 0041290 116.6292 243.9111 13.87904051 59105"}}, "geometry": {"type": "Point", "coordinates": [-173.9972039129513, 48.184576139367714]}}, {"type": "Feature", "properties": {"norad_id": 32052, "name": "COSMOS 2429", "group": "musson", "lat": 36.85248402593368, "lon": 151.56656132474882, "alt_km": 996.3196443401421, "timestamp": "2025-12-21T11:31:43.125658+00:00", "meta": {"OBJECT_NAME": "COSMOS 2429", "OBJECT_ID": "2007-038A", "EPOCH": "2025-12-21T00:21:41.705856", "MEAN_MOTION": 13.75150203, "ECCENTRICITY": 0.0038766, "INCLINATION": 82.9806, "RA_OF_ASC_NODE": 337.2079, "ARG_OF_PERICENTER": 15.1606, "MEAN_ANOMALY": 345.0702, "EPHEMERIS_TYPE": 0, "CLASSIFICATION_TYPE": "U", "NORAD_CAT_ID": 32052, "ELEMENT_SET_NO": 999, "REV_AT_EPOCH": 91716, "BSTAR": 3.3578e-05, "MEAN_MOTION_DOT": 4.8e-07, "MEAN_MOTION_DDOT": 0}, "tle": {"line1": "1 32052U 07038A   25355.01506604  .00000048  00000+0  33578-4 0  9993", "line2": "2 32052  82.9806 337.2079 0038766  15.1606 345.0702 13.75150203917169"}}, "geometry": {"type": "Point", "coordinates": [151.56656132474882, 36.85248402593368]}}, {"type": "Feature", "properties": {"norad_id": 35635, "name": "COSMOS 2454", "group": "musson", "lat": 16.515311951732368, "lon": -20.08208023499183, "alt_km": 935.1820651990529, "timestamp": "2025-12-21T11:31:43.125669+00:00", "meta": {"OBJECT_NAME": "COSMOS 2454", "OBJECT_ID": "2009-039A", "EPOCH": "2025-12-21T00:58:54.604992", "MEAN_MOTION": 13.89929585, "ECCENTRICITY": 0.0020201, "INCLINATION": 82.9557, "RA_OF_ASC_NODE": 162.3521, "ARG_OF_PERICENTER": 51.4614, "MEAN_ANOMALY": 73.9313, "EPHEMERIS_TYPE": 0, "CLASSIFICATION_TYPE": "U", "NORAD_CAT_ID": 35635, "ELEMENT_SET_NO": 999, "REV_AT_EPOCH": 83265, "BSTAR": 3.0101e-05, "MEAN_MOTION_DOT": 5.3e-07, "MEAN_MOTION_DDOT": 0}, "tle": {"line1": "1 35635U 09039A   25355.04090978  .00000053  00000+0  30101-4 0  9996", "line2": "2 35635  82.9557 162.3521 0020201  51.4614  73.9313 13.89929585832655"}}, "geometry": {"type": "Point", "coordinates": [-20.08208023499183, 16.515311951732368]}}, {"type": "Feature", "properties": {"norad_id": 36519, "name": "COSMOS 2463", "group": "musson", "lat": -10.797699787408312, "lon": 18.93896699643881, "alt_km": 996.1052760362609, "timestamp": "2025-12-21T11:31:43.125679+00:00", "meta": {"OBJECT_NAME": "COSMOS 2463", "OBJECT_ID": "2010-017A", "EPOCH": "2025-12-21T03:07:08.284800", "MEAN_MOTION": 13.7164984, "ECCENTRICITY": 0.0034748, "INCLINATION": 82.9604, "RA_OF_ASC_NODE": 20.5467, "ARG_OF_PERICENTER": 263.9037, "MEAN_ANOMALY": 155.6361, "EPHEMERIS_TYPE": 0, "CLASSIFICATION_TYPE": "U", "NORAD_CAT_ID": 36519, "ELEMENT_SET_NO": 999, "REV_AT_EPOCH": 78352, "BSTAR": 3.9238e-05, "MEAN_MOTION_DOT": 5e-07, "MEAN_MOTION_DDOT": 0}, "tle": {"line1": "1 36519U 10017A   25355.12995700  .00000050  00000+0  39238-4 0  9999", "line2": "2 36519  82.9604  20.5467 0034748 263.9037 155.6361 13.71649840783520"}}, "geometry": {"type": "Point", "coordinates": [18.93896699643881, -10.797699787408312]}}]}